{"type":"FeatureCollection","features":[{"type":"Feature","properties":{"_gpxType":"trk","name":"Paris Marathon Route [2024]","type":"running","links":[{"href":"https://www.strava.com/routes/3275845575686833318"}],"coordinateProperties":{}},"geometry":{"type":"LineString","coordinates":[[2.3081400000000003,48.86961,44.42],[2.3092682629808117,48.86925005503372,43.260000000000005],[2.310396509728829,48.86889009905993,43.260000000000005],[2.3115247402439945,48.86853013207895,43.260000000000005],[2.3126529545262517,48.868170154091054,43.260000000000005],[2.313781152575544,48.867810165096586,43.260000000000005],[2.3149093343918135,48.8674501650958,39.620000000000005],[2.316037499975004,48.867090154089,39.620000000000005],[2.3171656493250588,48.866730132076505,39.620000000000005],[2.3182937824419207,48.866370099058585,39.620000000000005],[2.3194218993255338,48.86601005503556,39.620000000000005],[2.3205500000000003,48.86565,39.620000000000005],[2.32084,48.866040000000005,39.080000000000005],[2.32104,48.86618000000001,39.16],[2.3214200000000003,48.866310000000006,39.24],[2.32173,48.86639,39.35],[2.3218400000000003,48.866460000000004,39.35],[2.3219600000000002,48.86661,39.63],[2.32283,48.86634,39.470000000000006],[2.32307,48.866330000000005,39.470000000000006],[2.3234600000000003,48.86638000000001,39.61000000000001],[2.32371,48.86638000000001,39.88],[2.32416,48.866310000000006,40.120000000000005],[2.325193347189975,48.86597334258212,40.42],[2.326226680476241,48.86563667593073,40.49],[2.3272600000000003,48.865300000000005,40.46],[2.3278499859788018,48.865893336312936,40.31],[2.328439985948277,48.866486669615796,40.410000000000004],[2.3290300000000004,48.86708,40.38],[2.3291000000000004,48.86726,40.43],[2.3292900000000003,48.86753,40.449999999999996],[2.32953,48.86771,44.67],[2.330199974490546,48.86834500582091,44.67],[2.3308699659858174,48.8689800077603,44.18],[2.3315399744865233,48.869615005817955,44.18],[2.3322100000000003,48.870250000000006,44.18],[2.3320100000000004,48.87075,44.050000000000004],[2.33185,48.87107,44.11],[2.3316600000000003,48.871170000000006,44.42],[2.33171,48.87125,45.99],[2.3309,48.871700000000004,51.510000000000005],[2.3308600000000004,48.87176,51.510000000000005],[2.3312449956450707,48.87233000068727,49.510000000000005],[2.33163,48.8729,49.510000000000005],[2.332215004142205,48.87255000144987,42.97],[2.3328,48.87220000000001,43.84],[2.3325699976061607,48.87167500027348,44.9],[2.3323400000000003,48.87115000000001,45.34],[2.3326590453302245,48.870360003957046,49.42],[2.3329780805857743,48.86957000703393,49.42],[2.3332971057672376,48.86878000923068,49.42],[2.333616120875201,48.867990010547395,49.42],[2.3339351259102523,48.86720001098409,49.42],[2.3342541208729783,48.86641001054085,47.7],[2.3345731057639667,48.865620009217686,47.7],[2.334892080583803,48.86483000701468,47.7],[2.335211045333076,48.8640400039319,47.7],[2.3355300000000003,48.86325,47.7],[2.3349824736556415,48.862447503876545,47.7],[2.3344349648695215,48.86164500516081,32.24],[2.333887473640638,48.860842503852936,32.24],[2.33334,48.860040000000005,32.24],[2.33339,48.86009000000001,39.220000000000006],[2.3344466765649354,48.859853343009846,37.74],[2.3355033431375163,48.85961667636422,37.43000000000001],[2.33656,48.85938,37.78],[2.3372650012150373,48.859310002126286,38.53],[2.3379700000000003,48.85924000000001,38.89],[2.3389300025111166,48.859110003982394,38.75],[2.33989,48.85898,27.92],[2.3402233248418183,48.85961666760523,27.92],[2.340556658163359,48.86025333424965,46.37],[2.3408900000000004,48.860890000000005,46.37],[2.342040067180664,48.86052449019433,46.37],[2.3431901175641747,48.860158968951154,46.37],[2.3443401511504667,48.85979343627075,46.910000000000004],[2.345490167939477,48.85942789215344,46.910000000000004],[2.346640167931141,48.85906233659956,46.910000000000004],[2.3477901511253956,48.858696769609395,46.910000000000004],[2.3489401175221767,48.8583311911833,46.910000000000004],[2.35009006712142,48.85796560132154,45.42],[2.35124,48.857600000000005,45.42],[2.3524043245695956,48.85732146374395,45.42],[2.353568636181627,48.857042915764815,45.42],[2.3547329348358206,48.85676435606283,45.42],[2.3558972205319026,48.85648578463825,45.87],[2.3570614932695992,48.85620720149133,45.87],[2.358225753048636,48.8559286066223,45.87],[2.3593900000000003,48.855650000000004,45.87],[2.360470005892676,48.85538000502642,42.010000000000005],[2.3615500000000003,48.85511,42.010000000000005],[2.36167,48.855090000000004,41.78],[2.3624400000000003,48.85481,41.120000000000005],[2.36294,48.85459,40.84],[2.3635900000000003,48.854350000000004,40.900000000000006],[2.36464,48.85403,44.57000000000001],[2.3658066777998257,48.85379001178146,44.57000000000001],[2.36697334441413,48.85355001179218,43.29],[2.3681400000000004,48.85331,43.29],[2.36859,48.85325,43.04],[2.3687400000000003,48.853460000000005,43.08],[2.3689,48.85352,43.22],[2.36905,48.853550000000006,43.22],[2.3692200000000003,48.853550000000006,43.35000000000001],[2.3694,48.85352,43.36],[2.3695500000000003,48.85347,43.18],[2.3696800000000002,48.85336,42.980000000000004],[2.36971,48.85329,42.980000000000004],[2.37015,48.85329,43.43],[2.37028,48.85327,43.35000000000001],[2.3704400000000003,48.8532,43.07],[2.37082,48.85295000000001,42.910000000000004],[2.37175,48.852470000000004,42.07],[2.3723500000000004,48.85228000000001,41.620000000000005],[2.3728700000000003,48.85213,42.690000000000005],[2.3739683623948102,48.851865026082116,42.690000000000005],[2.3750667131635645,48.85160004173154,42.690000000000005],[2.376165052306037,48.85133504694846,40.980000000000004],[2.377263379822002,48.851070041733095,40.980000000000004],[2.3783616957112326,48.85080502608568,40.980000000000004],[2.3794600000000004,48.85054,40.980000000000004],[2.38005,48.85045,41.11],[2.38124,48.850410000000004,41.6],[2.3817700000000004,48.850370000000005,41.85],[2.3818300000000003,48.85042000000001,42.57],[2.38192,48.85042000000001,42.57],[2.383240004411181,48.85025500752644,43.71000000000001],[2.38456,48.85009,43.71000000000001],[2.3851020293623373,48.849412005072864,43.71000000000001],[2.385644044046095,48.848734007605074,43.71000000000001],[2.3861860440519655,48.848056007596746,45.300000000000004],[2.386728029380643,48.847378005047986,45.300000000000004],[2.38727,48.846700000000006,45.300000000000004],[2.3881001033724836,48.84600702680972,45.300000000000004],[2.3889301837711994,48.84531404766044,45.300000000000004],[2.3897602411971466,48.84462106255244,45.300000000000004],[2.3905902756513253,48.84392807148607,45.300000000000004],[2.3914202871347325,48.84323507446161,56.43000000000001],[2.3922502756483683,48.842542071479386,56.43000000000001],[2.393080241193231,48.84184906253969,56.43000000000001],[2.3939101837703207,48.84115604764286,56.43000000000001],[2.3947401033806344,48.84046302678917,56.43000000000001],[2.39557,48.83977,56.59],[2.39569,48.83982,56.59],[2.39588,48.83982,56.720000000000006],[2.39604,48.839760000000005,56.790000000000006],[2.3961,48.839710000000004,56.790000000000006],[2.3961200000000002,48.839690000000004,56.790000000000006],[2.39615,48.83957,56.67],[2.3961300000000003,48.839510000000004,56.67],[2.3960700000000004,48.83944,58.620000000000005],[2.39603,48.839420000000004,58.620000000000005],[2.397197857760018,48.83899115829085,58.620000000000005],[2.3983656955228145,48.83856230478641,58.620000000000005],[2.3995335132884845,48.838133439487045,58.620000000000005],[2.4007013110571225,48.837704562393164,58.620000000000005],[2.401869088828822,48.83727567350512,44.99],[2.403036846603679,48.836846772823314,44.99],[2.4042045843817865,48.83641786034811,44.99],[2.4053723021632414,48.83598893607989,44.99],[2.40654,48.83556,44.99],[2.4066300000000003,48.83563,45.050000000000004],[2.4067800000000004,48.835640000000005,45.26],[2.4074350032647183,48.83541000176481,46.400000000000006],[2.40809,48.83518,47.92],[2.4082600000000003,48.83509,47.92],[2.4083900000000003,48.83491,48.49],[2.40904,48.83469,51.99],[2.4098733419156813,48.83443000602701,51.99],[2.4107066751816846,48.83417000604799,52.06],[2.41154,48.83391,52.300000000000004],[2.41263,48.83377,52.83],[2.41284,48.833540000000006,52.51],[2.4135400039170896,48.833255002145364,52.870000000000005],[2.4142400000000004,48.83297,52.79],[2.4148400000000003,48.83269000000001,52.77],[2.41509,48.83256,52.57000000000001],[2.4157100000000002,48.83220000000001,51.93],[2.4162300038730202,48.83185000100745,51.85000000000001],[2.4167500000000004,48.831500000000005,51.99],[2.41759,48.830830000000006,52.14000000000001],[2.41818,48.8303,52.620000000000005],[2.41848,48.82996000000001,52.800000000000004],[2.4188300000000003,48.829480000000004,53.22],[2.41902,48.829150000000006,53.470000000000006],[2.4192500000000003,48.828700000000005,53.84],[2.4193100000000003,48.828630000000004,53.84],[2.4195300000000004,48.828570000000006,54.01],[2.4198849959341833,48.829140000500864,54.760000000000005],[2.42024,48.829710000000006,55.05],[2.42037,48.83001,55.220000000000006],[2.4204800000000004,48.83037,55.470000000000006],[2.42055,48.83077,55.67],[2.42057,48.830980000000004,55.67],[2.42055,48.831720000000004,56.03],[2.4204400014040655,48.832354999995204,56.14],[2.4203300000000003,48.83299,55.580000000000005],[2.42036,48.833420000000004,55.400000000000006],[2.42037,48.83388,55.040000000000006],[2.42035,48.83406,55.040000000000006],[2.4201900000000003,48.834390000000006,54.98],[2.4198700000000004,48.834860000000006,54.21],[2.41977,48.83498,54.21],[2.4209399905622204,48.835385005926774,53.980000000000004],[2.42211,48.83579,53.46000000000001],[2.4229600000000002,48.83615,53.24],[2.4234999970383306,48.836425001262356,53.120000000000005],[2.42404,48.8367,52.88],[2.42472,48.83711,52.82000000000001],[2.4253400000000003,48.83753,52.27],[2.42607,48.83798,51.45],[2.4266400000000004,48.838260000000005,51.010000000000005],[2.42722,48.8385,49.980000000000004],[2.42815,48.83885,48.980000000000004],[2.428974995993014,48.83909500295155,48.61000000000001],[2.4298,48.83934000000001,48.230000000000004],[2.430922480308955,48.83963251633867,48.5],[2.4320449737282375,48.83992502178059,49.660000000000004],[2.4331674802576475,48.84021751632548,51.480000000000004],[2.4342900000000003,48.84051,53.09],[2.4343600000000003,48.8404,52.870000000000005],[2.43488,48.840540000000004,53.44],[2.43501,48.84053,53.44],[2.43533,48.84038,53.480000000000004],[2.4355200000000004,48.84035,53.480000000000004],[2.43576,48.84035,53.4],[2.4360000000000004,48.84038,53.4],[2.4360700000000004,48.840360000000004,53.4],[2.43617,48.840300000000006,53.4],[2.43631,48.84038,53.63],[2.4371714932756747,48.83975287640263,50.5],[2.438032964979176,48.839125746386834,50.5],[2.4388944151112995,48.83849860995293,50.5],[2.4397558436728417,48.83787146710122,49.25],[2.4406172506645984,48.83724431783202,49.25],[2.441478636087365,48.83661716214559,49.25],[2.44234,48.83599,49.25],[2.4428400034664595,48.83562000124866,49.870000000000005],[2.44334,48.83525,50.230000000000004],[2.444170011005889,48.834585002988305,51.45],[2.4450000000000003,48.833920000000006,51.9],[2.4450100000000003,48.83388,51.88],[2.4449,48.833830000000006,51.38],[2.44503,48.83372000000001,51.7],[2.44538,48.83355,51.980000000000004],[2.44626,48.832980000000006,53.67],[2.4467900039295114,48.832610001203946,53.800000000000004],[2.4473200000000004,48.832240000000006,54.57000000000001],[2.4481250093456213,48.83165500284121,55.45],[2.4489300000000003,48.831070000000004,56.330000000000005],[2.4496166808769373,48.8305500041102,56.720000000000006],[2.4503033475009697,48.830030004142316,57.080000000000005],[2.45099,48.829510000000006,57.02],[2.4517100000000003,48.828990000000005,57.050000000000004],[2.452446682940474,48.82843667135704,56.980000000000004],[2.453183349611239,48.82788333802041,56.970000000000006],[2.45392,48.82733,56.650000000000006],[2.4540200000000003,48.827200000000005,56.49],[2.45419,48.82725000000001,56.88],[2.45431,48.82717,56.900000000000006],[2.4544400000000004,48.827200000000005,56.900000000000006],[2.45461,48.82717,56.42],[2.4547000000000003,48.8271,56.42],[2.45472,48.82703,56.42],[2.4547100000000004,48.826980000000006,56.730000000000004],[2.4546400000000004,48.8269,56.730000000000004],[2.45472,48.82683,56.7],[2.4546,48.82674,56.32],[2.45468,48.8267,56.31],[2.455315006872165,48.82615500177275,56],[2.45595,48.825610000000005,55.39],[2.456555007155455,48.82502000155091,55.040000000000006],[2.45716,48.82443000000001,54.510000000000005],[2.4574700000000003,48.824090000000005,54.26],[2.45753,48.823980000000006,54.26],[2.45753,48.823780000000006,54.32000000000001],[2.45758,48.82374,54.32000000000001],[2.45719,48.823510000000006,54.39000000000001],[2.45635,48.823080000000004,55.43000000000001],[2.455284988906306,48.82256000488354,58.150000000000006],[2.4542200000000003,48.82204,61.38],[2.45371,48.82173,62.6],[2.45332,48.821470000000005,63.7],[2.4528000000000003,48.821180000000005,65.25],[2.45203,48.820840000000004,66.79],[2.45106,48.820460000000004,68.3],[2.4506,48.82032,68.51],[2.45005,48.82023,68.82000000000001],[2.4498,48.82021,68.99000000000001],[2.4494000000000002,48.82021,69.04],[2.44871,48.82025,69.09000000000002],[2.44753,48.82034,69.09000000000002],[2.44672,48.820420000000006,68.81],[2.4460450009599017,48.820510002004006,68.04],[2.44537,48.820600000000006,67.54],[2.444959996166352,48.82013500069292,67.71000000000001],[2.44455,48.81967,67.78],[2.4440500000000003,48.819230000000005,66.72],[2.44368,48.81898,65],[2.44288,48.81862,63.59],[2.4422300000000003,48.81864,63.18],[2.4411300000000002,48.818740000000005,62.90000000000001],[2.4404450013193477,48.81883500202628,62.910000000000004],[2.43976,48.81893,63.19000000000001],[2.43845,48.819160000000004,63.6],[2.437800002207989,48.819325001809815,64.47],[2.4371500000000004,48.81949,65.19000000000001],[2.4362000000000004,48.819810000000004,65.99000000000001],[2.4355500034846496,48.820090001890215,66.24000000000001],[2.4349000000000003,48.820370000000004,66.23],[2.4343100000000004,48.82072,65.59],[2.43379,48.82108,65.09],[2.433260004538722,48.82152500135493,64.16000000000001],[2.4327300000000003,48.82197000000001,63.28],[2.43217,48.82235000000001,62.800000000000004],[2.43143,48.822790000000005,62.230000000000004],[2.4312400000000003,48.822880000000005,62.150000000000006],[2.4305600000000003,48.823170000000005,61.790000000000006],[2.42991,48.82340000000001,61.39000000000001],[2.42916,48.82363,60.75000000000001],[2.4285200000000002,48.823780000000006,60.120000000000005],[2.4277900000000003,48.82392,59.47],[2.42713,48.824020000000004,58.74000000000001],[2.4264300000000003,48.8241,57.13],[2.4255400000000003,48.82417,56.43000000000001],[2.4242333314142686,48.82413334810026,55.790000000000006],[2.4229266647401593,48.82409668143339,54.86000000000001],[2.4216200000000003,48.82406,54.86000000000001],[2.420560003960814,48.82415334305025,54.86000000000001],[2.419500003973257,48.82424667638249,54.13],[2.4184400000000004,48.82434000000001,54.13],[2.41779,48.82452000000001,53.800000000000004],[2.4166000000000003,48.824720000000006,53.35],[2.41596,48.82477,53.34],[2.41523,48.824780000000004,53.300000000000004],[2.4138800000000002,48.824720000000006,53.46000000000001],[2.41318,48.82471,53.43000000000001],[2.41229,48.824740000000006,53.540000000000006],[2.4115200000000003,48.824830000000006,53.63],[2.41041,48.82504,53.46000000000001],[2.4104200000000002,48.825030000000005,53.46000000000001],[2.4101000000000004,48.82513,53.28],[2.40939,48.8254,53.02],[2.40884,48.82567,52.95],[2.40835,48.82594,52.71000000000001],[2.4076850055715977,48.82637500204385,52.53000000000001],[2.40702,48.82681,52.45],[2.4064350054693286,48.82729000159011,52.620000000000005],[2.40585,48.82777,52.81],[2.40525,48.8282,53.19],[2.40497,48.828390000000006,53.28],[2.40417,48.82884000000001,53.63],[2.40309,48.82932,53.74],[2.4027800000000004,48.829440000000005,53.6],[2.4023700000000003,48.82956,53.31],[2.40174,48.829660000000004,53.050000000000004],[2.40165,48.829710000000006,53.050000000000004],[2.4013600000000004,48.82977,52.93000000000001],[2.4012000000000002,48.82976000000001,52.93000000000001],[2.40103,48.829730000000005,52.93000000000001],[2.40092,48.82977,52.800000000000004],[2.4008200000000004,48.829710000000006,48.03],[2.3998700584714276,48.830326686173386,48.03],[2.3989200935592443,48.830943364542016,48.03],[2.3979701052626625,48.83156003510555,43.730000000000004],[2.397020093580894,48.832176697863616,43.730000000000004],[2.396070058513153,48.83279335281587,43.730000000000004],[2.3951200000000004,48.83341,43.730000000000004],[2.394346686551149,48.834053338486335,43.730000000000004],[2.3935733532411736,48.83469667180054,44.77],[2.3928000000000003,48.83534,44.47],[2.392210009084088,48.836115001562526,41.39],[2.39162,48.836890000000004,39.35],[2.3915300000000004,48.83695,39.190000000000005],[2.3912,48.837300000000006,39.21],[2.3910400000000003,48.837430000000005,39.35],[2.3903300082584997,48.8380150022073,42.45],[2.3896200000000003,48.83860000000001,48.59],[2.38959,48.83858000000001,48.59],[2.3890180287768272,48.839210005660014,48.59],[2.3884460431654397,48.839840008490604,48.59],[2.3878740431652212,48.84047000849165,45.040000000000006],[2.3873020287755558,48.84110000566304,45.040000000000006],[2.38673,48.841730000000005,45.040000000000006],[2.3856608211132704,48.842246735884366,45.040000000000006],[2.384591620164304,48.84276346188232,45.040000000000006],[2.3835223971526656,48.843280177993435,45.040000000000006],[2.3824531520779204,48.84379688421738,45.040000000000006],[2.3813838849396336,48.84431358055377,45.040000000000006],[2.380314595737371,48.84483026700216,45.040000000000006],[2.3792452844706977,48.84534694356222,45.040000000000006],[2.37817595113918,48.84586361023355,42.330000000000005],[2.3771065957423825,48.846380267015775,42.330000000000005],[2.376037218279871,48.846896913908495,42.330000000000005],[2.37496781875121,48.84741355091134,42.330000000000005],[2.3738983971559673,48.84793017802394,42.330000000000005],[2.372828953493706,48.84844679524585,42.330000000000005],[2.371759487763993,48.84896340257675,42.330000000000005],[2.37069,48.84948000000001,42.330000000000005],[2.370160028111213,48.85014400486238,42.330000000000005],[2.369630042165832,48.85080800729575,42.330000000000005],[2.369100042163207,48.85147200729997,42.74],[2.368570028102688,48.85213600487493,42.74],[2.36804,48.8528,42.74],[2.366982480042407,48.852485014507316,42.74],[2.3659249733915,48.85217001934344,40.269999999999996],[2.3648674800473724,48.8518550145086,40.269999999999996],[2.3638100000000004,48.85154000000001,40.190000000000005],[2.3625900000000004,48.851150000000004,39.720000000000006],[2.36254,48.85123,39.650000000000006],[2.36233,48.85139,39.2],[2.3615000084195445,48.85189500294968,38.940000000000005],[2.3606700000000003,48.8524,38.150000000000006],[2.3605,48.852230000000006,35.730000000000004],[2.36025,48.85233,35.7],[2.36022,48.85231,35.7],[2.3601,48.85235,32.93],[2.3600000000000003,48.85224,32.93],[2.3591750051187086,48.852545002908656,33.04],[2.35835,48.852850000000004,33.230000000000004],[2.3578200000000002,48.85309,33.370000000000005],[2.3575000000000004,48.85323,33.300000000000004],[2.3566200000000004,48.85351000000001,33.300000000000004],[2.35658,48.853460000000005,33.29],[2.3557600045643463,48.85374000291484,33.17],[2.35494,48.854020000000006,32.86],[2.35421,48.85434,33.230000000000004],[2.35413,48.854310000000005,33.230000000000004],[2.3536200000000003,48.85452,33.46],[2.3534900000000003,48.85459,33.22],[2.35358,48.854670000000006,33.22],[2.35307,48.854910000000004,32.86],[2.35246,48.85517,33.46],[2.35209,48.85526,33.580000000000005],[2.3514600000000003,48.85551,33.330000000000005],[2.35102,48.85578,33.18],[2.35063,48.855920000000005,33.09],[2.35034,48.855990000000006,33.09],[2.34974,48.856190000000005,33.02],[2.3490100000000003,48.856480000000005,33.04],[2.3477900000000003,48.856820000000006,28.380000000000003],[2.3467400240259275,48.85710601905992,28.380000000000003],[2.3456900360533504,48.857392028586105,28.380000000000003],[2.344640036082411,48.85767802857836,26.160000000000004],[2.34359002411325,48.85796401903647,26.160000000000004],[2.34254,48.858250000000005,26.160000000000004],[2.3413300103606254,48.85846334598605,26.160000000000004],[2.3401200104071016,48.85867667931124,27.01],[2.3389100000000003,48.85889,27.01],[2.3378066739349213,48.85905334385041,27.01],[2.336703340669032,48.85921667717377,32.21],[2.3356000000000003,48.85938,32.21],[2.3346500000000003,48.85958,32.34],[2.333745003936438,48.85979500352963,32.400000000000006],[2.33284,48.86001,32.49],[2.33197,48.86019,32.760000000000005],[2.3318700000000003,48.860170000000004,32.760000000000005],[2.33136,48.860290000000006,32.730000000000004],[2.33029,48.86063,28.87],[2.329655003886685,48.86092500167655,28.23],[2.3290200000000003,48.86122,28.23],[2.3278356293933853,48.86161004852503,28.23],[2.3266512403268704,48.86200008491976,28.23],[2.325466832800488,48.86239010918383,28.23],[2.3242824068142722,48.862780121316874,28.23],[2.3230979623682546,48.86317012131854,35.09],[2.321913499462469,48.86356010918848,35.09],[2.320729018096948,48.86395008492632,35.09],[2.3195445182717243,48.86434004853172,35.09],[2.31836,48.86473,35.09],[2.3170563615102266,48.86472189166142,35.09],[2.3157527234432735,48.864713768626906,35.09],[2.3144490857999074,48.86470563089644,35.09],[2.313145448580892,48.86469747847005,35.09],[2.3118418117869943,48.864689311347725,35.09],[2.3105381754189787,48.864681129529494,39.24],[2.3092345394776115,48.864672933015356,39.24],[2.307930903963657,48.86466472180533,39.24],[2.306627268877881,48.864656495899425,39.24],[2.305323634221049,48.86464825529763,39.24],[2.3040200000000004,48.86464,39.24],[2.302804996069199,48.864480006376624,32.660000000000004],[2.30159,48.864320000000006,32.660000000000004],[2.300509996573998,48.86416500503152,37.31],[2.29943,48.86401000000001,28.450000000000003],[2.2982449790573085,48.86371501821752,28.450000000000003],[2.2970599720842904,48.86342002429184,36.03],[2.2958749790812107,48.86312501822326,36.03],[2.29469,48.86283,36.03],[2.2943100000000003,48.86272,36.300000000000004],[2.2934400000000004,48.862370000000006,37.160000000000004],[2.29314,48.86216,39.82],[2.292335720225541,48.86152003076016,39.82],[2.2915314610188733,48.86088005592671,39.82],[2.2907272223791875,48.86024007549988,39.82],[2.289923004305673,48.859600089480004,39.82],[2.289118806797521,48.85896009786729,39.82],[2.288314629853921,48.85832010066202,35.230000000000004],[2.2875104734740637,48.85768009786449,35.230000000000004],[2.2867063376571384,48.857040089474935,35.230000000000004],[2.2859022224023366,48.85640007549366,35.230000000000004],[2.2850981277088485,48.85576005592091,35.230000000000004],[2.2842940535758633,48.855120030756936,35.230000000000004],[2.28349,48.85448,35.230000000000004],[2.2825986805178466,48.85392252403685,35.230000000000004],[2.2817073808859543,48.85336504120359,35.230000000000004],[2.280816101103736,48.85280755150053,35.230000000000004],[2.279924841170604,48.85225005492794,37.21],[2.2790336010859726,48.85169255148614,37.21],[2.2781423808492525,48.85113504117538,37.21],[2.277251180459858,48.85057752399597,37.21],[2.2763600000000004,48.85002,37.21],[2.275743318339579,48.8494100033197,37.42],[2.2751266517044937,48.848800003350696,37.62],[2.2745100000000003,48.84819,37.83],[2.274109996923989,48.84780500069129,37.99],[2.2737100000000003,48.84742000000001,37.95],[2.27354,48.84723,37.900000000000006],[2.2729133178132748,48.84661000339378,37.900000000000006],[2.272286651144325,48.84599000339124,38.11000000000001],[2.2716600000000002,48.84537,38.1],[2.2710699795118217,48.84479000452656,38.13],[2.2704799726901315,48.84421000604256,38.42],[2.269889979534404,48.843630004548125,38.66],[2.2693000000000003,48.843050000000005,38.82],[2.2690400000000004,48.84281000000001,38.95],[2.2681474752577704,48.84234751032455,39.790000000000006],[2.2672549669991877,48.84188501375999,40.720000000000006],[2.266362475223924,48.8414225103066,42.60000000000001],[2.26547,48.84096,44.45],[2.2650400000000004,48.840720000000005,43.54],[2.2639900197097877,48.84119000953311,43.84],[2.2629400197134357,48.84166000953165,43.77],[2.26189,48.842130000000004,43.65],[2.2616400000000003,48.84226,43.730000000000004],[2.26161,48.842310000000005,43.730000000000004],[2.2607500000000003,48.84268,43.52],[2.26017,48.842960000000005,43.620000000000005],[2.25998,48.84308,43.620000000000005],[2.2593400000000003,48.84357000000001,43.730000000000004],[2.25902,48.84393000000001,43.82000000000001],[2.2588600000000003,48.844150000000006,43.82000000000001],[2.2586000000000004,48.84467,44.120000000000005],[2.2585100000000002,48.84494,44.33],[2.2584600000000004,48.845220000000005,44.86000000000001],[2.25843,48.845330000000004,44.7],[2.2573400003854553,48.84535000513835,43.95],[2.25625,48.84537,43.63],[2.25599,48.84541,43.61],[2.2553900000000002,48.84541,43.52],[2.25471,48.84544,42.620000000000005],[2.2545200000000003,48.84543000000001,42.620000000000005],[2.2532233349744435,48.845463347876034,41.09],[2.251926668222329,48.84549668121157,40.800000000000004],[2.25063,48.845530000000004,40.82],[2.2494657559268507,48.845828606599675,37.99],[2.248301497969448,48.84612720147699,37.99],[2.247137226128025,48.84642578463165,37.99],[2.245972940402816,48.84672435606344,37.99],[2.2448086407940546,48.84702291577205,38.56],[2.243644327301974,48.847321463757254,38.56],[2.24248,48.847620000000006,38.56],[2.2422400000000002,48.84783,39.970000000000006],[2.2425100000000002,48.847910000000006,40.06],[2.24271,48.848040000000005,40.2],[2.2427900000000003,48.84814,40.2],[2.2428000000000003,48.848200000000006,40.52],[2.2427900000000003,48.84826,40.52],[2.2427300000000003,48.84834000000001,40.59],[2.24261,48.848400000000005,40.61],[2.24227,48.84843,40.61],[2.2421900000000003,48.848510000000005,40.5],[2.24209,48.84868,40.5],[2.2419933409919555,48.849473333530966,41.59],[2.2418966789209196,48.85026666698112,44.980000000000004],[2.241800013786709,48.85106000035047,48.88],[2.241703345589143,48.851853333639006,50.760000000000005],[2.2416066743280383,48.85264666684673,51.54],[2.2415100000000003,48.853440000000006,51.34],[2.24153,48.853500000000004,51.34],[2.241959994290419,48.854165000802915,51.43],[2.2423900000000003,48.85483000000001,51.230000000000004],[2.2428959692680235,48.855590004422126,51.21000000000001],[2.243401953899207,48.85635000663031,51.010000000000005],[2.243907953894384,48.857110006624445,50.42000000000001],[2.244413969254388,48.857870004404404,50.06000000000001],[2.24492,48.858630000000005,49.32],[2.24608,48.858320000000006,49.77],[2.2470700000000003,48.85812000000001,49.99000000000001],[2.2479,48.85801000000001,50.260000000000005],[2.2488300000000003,48.85793,50.5],[2.24967,48.8579,50.74000000000001],[2.250884998822592,48.857945006379765,51.13],[2.2521,48.85799,51.49],[2.25267,48.85804,51.86],[2.2526800000000002,48.85797,51.97],[2.2527700000000004,48.857980000000005,51.980000000000004],[2.2539000000000002,48.85808,52.49],[2.2549799947688953,48.8582000100807,53.050000000000004],[2.2560599947162006,48.858320010074856,53.34],[2.25714,48.85844,53.25000000000001],[2.25774,48.858470000000004,53.480000000000004],[2.2587800000000002,48.85842,53.93000000000001],[2.2601400000000003,48.858410000000006,54.46],[2.26073,48.85837,55.06],[2.2609000000000004,48.858360000000005,55.11000000000001],[2.2617500039679377,48.85813500308498,54.82000000000001],[2.2626000000000004,48.857910000000004,54.720000000000006],[2.26342,48.857670000000006,55.120000000000005],[2.2635300000000003,48.85766,55.190000000000005],[2.264715007549488,48.857340006078594,55.68000000000001],[2.2659000000000002,48.857020000000006,54.86000000000001],[2.26607,48.85699,54.480000000000004],[2.26636,48.85699,54.480000000000004],[2.26674,48.857060000000004,54.3],[2.267639982631501,48.85738251051637,53.85],[2.2685399768597936,48.85770501402834,53.25000000000001],[2.2694399826849074,48.85802751053569,54.06],[2.27034,48.85835,55.11000000000001],[2.2706000000000004,48.85835,55.370000000000005],[2.27140000054034,48.858310002772185,57.300000000000004],[2.2722,48.858270000000005,58.82],[2.2722700000000002,48.85830000000001,59.34],[2.2728800000000002,48.85828,60.11],[2.2737000000000003,48.858200000000004,60.34],[2.2744,48.85817,60.89000000000001],[2.27468,48.85826,61.050000000000004],[2.27495,48.85833,69.21000000000001],[2.2759699845950747,48.858710009027504,69.21000000000001],[2.276989984677167,48.859090009058185,61.46000000000001],[2.27801,48.85947,61.46000000000001],[2.2788599962649583,48.85969000312418,62.86],[2.27971,48.859910000000006,64.24000000000001],[2.2803899977266484,48.86007000197587,65.18],[2.28107,48.86023,74.41],[2.282077973078882,48.86056401756775,74.41],[2.2830859596109723,48.86089802634939,74.41],[2.2840939595962553,48.86123202634474,68.16000000000001],[2.285101973034714,48.86156601755354,68.16000000000001],[2.2861100000000003,48.861900000000006,68.16000000000001],[2.28642,48.862080000000006,67.13000000000001],[2.28641,48.86207,67.13000000000001],[2.2866400000000002,48.86225,66.23],[2.28688,48.862500000000004,66.16000000000001],[2.2865100000000003,48.86274,66.22],[2.2864600000000004,48.86280000000001,66.22],[2.2864400000000002,48.86294,66.29],[2.28648,48.8631,66.29],[2.28656,48.86321,66.28],[2.2866600000000004,48.86328,66.28],[2.2867900000000003,48.86336000000001,66.24000000000001],[2.28694,48.863400000000006,66.24000000000001],[2.2867185943775494,48.864264286970844,71.67000000000002],[2.2864971811075714,48.86512857351775,71.67000000000002],[2.286275760189573,48.86599285964074,71.67000000000002],[2.2860543316230593,48.86685714533975,71.67000000000002],[2.2858328954075384,48.86772143061475,65.36],[2.285611451542517,48.868585715465734,65.36],[2.28539,48.86945,65.36],[2.2852900000000003,48.86945,65.25],[2.28519,48.86947000000001,65.25],[2.28505,48.869550000000004,65.17],[2.28501,48.86963,64.84],[2.2850200000000003,48.869730000000004,64.84],[2.2837828971933645,48.8700000397046,61.730000000000004],[2.2825457810336953,48.87027006617526,65.41000000000001],[2.2813086515213765,48.87054007941171,65.41000000000001],[2.280071508656791,48.870810079413715,65.41000000000001],[2.2788343524403225,48.871080066180966,51.27],[2.277597182872355,48.87135003971322,51.27],[2.2763600000000004,48.87162000000001,51.27],[2.27632,48.87178,51.620000000000005],[2.277526660433973,48.871910012594576,51.58],[2.278733327138913,48.87204001259873,50.260000000000005],[2.2799400000000003,48.872170000000004,50.150000000000006]]}}]}
